NORAD_CAT_ID,OBJECT_NAME,OBJECT_TYPE,EPOCH,MEAN_MOTION,ECCENTRICITY,INCLINATION,RA_OF_ASC_NODE,ARG_OF_PERICENTER,MEAN_ANOMALY,BSTAR,MEAN_MOTION_DOT,MEAN_MOTION_DDOT,TLE_LINE0,TLE_LINE1,TLE_LINE2,SEMIMAJOR_AXIS,PERIOD,APOGEE,PERIGEE,DECAYED
51131.0,STARLINK-3388,PAYLOAD,2022-09-02 11:25:33,15.08839879,0.000179,53.217,304.1971,48.3979,311.7167,0.00014713,2.054e-05,0.0,0 STARLINK-3388,1 51131U 22005AD  22245.47608599  .00002054  00000-0  14713-3 0  9993,2 51131  53.2170 304.1971 0001790  48.3979 311.7167 15.08839879 35971,6917.880999999999,95.438,540.984,538.507,0.0
51131.0,STARLINK-3388,PAYLOAD,2022-09-03 11:16:21,15.08838001,0.0001899,53.2165,299.7358,44.5824,315.5321,3.2083000000000004e-05,2.22e-06,0.0,0 STARLINK-3388,1 51131U 22005AD  22246.46969280  .00000222  00000-0  32083-4 0  9996,2 51131  53.2165 299.7358 0001899  44.5824 315.5321 15.08838001 36128,6917.886,95.438,541.065,538.438,0.0
51131.0,STARLINK-3388,PAYLOAD,2022-09-03 20:48:40,15.08841362,0.0001888,53.2166,297.9517,47.2985,312.8166,4.8726e-05,4.87e-06,0.0,0 STARLINK-3388,1 51131U 22005AD  22246.86713010  .00000487  00000-0  48726-4 0  9992,2 51131  53.2166 297.9517 0001888  47.2985 312.8166 15.08841362 35065,6917.876,95.437,541.047,538.435,0.0
51131.0,STARLINK-3388,PAYLOAD,2022-09-04 03:10:12,15.08845793,0.0001839,53.2164,296.762,45.8898,314.2245,4.677e-05,4.56e-06,0.0,0 STARLINK-3388,1 51131U 22005AD  22247.13208598  .00000456  00000-0  46770-4 0  9996,2 51131  53.2164 296.7620 0001839  45.8898 314.2245 15.08845793 36223,6917.863,95.437,541.0,538.455,0.0
51131.0,STARLINK-3388,PAYLOAD,2022-09-04 09:31:44,15.08850488,0.0001831999999999,53.2162,295.5726,45.9523,314.1620000000001,8.077199999999999e-05,9.98e-06,0.0,0 STARLINK-3388,1 51131U 22005AD  22247.39704057  .00000998  00000-0  80772-4 0  9996,2 51131  53.2162 295.5726 0001832  45.9523 314.1620 15.08850488 35147,6917.848000000001,95.437,540.981,538.446,0.0
51131.0,STARLINK-3388,PAYLOAD,2022-09-05 09:22:30,15.08851376,0.0001833,53.2167,291.1124,46.5904,313.524,0.00014983,2.098e-05,0.0,0 STARLINK-3388,1 51131U 22005AD  22248.39063307  .00002098  00000-0  14983-3 0  9996,2 51131  53.2167 291.1124 0001833  46.5904 313.5240 15.08851376 35291,6917.846,95.437,540.979,538.443,0.0
51131.0,STARLINK-3388,PAYLOAD,2022-09-06 02:51:45,15.08843005,0.0001825,53.2147,287.8403,50.6588,309.4565,-1.5622e-05,-5.37e-06,0.0,0 STARLINK-3388,1 51131U 22005AD  22249.11927834 -.00000537  00000-0 -15622-4 0  9991,2 51131  53.2147 287.8403 0001825  50.6588 309.4565 15.08843005 36527,6917.871,95.437,540.999,538.474,0.0
51131.0,STARLINK-3388,PAYLOAD,2022-09-06 09:13:18,15.08840037,0.0001959,53.216,286.6509,43.7902,316.3246,-0.00010391,-1.942e-05,0.0,0 STARLINK-3388,1 51131U 22005AD  22249.38424098 -.00001942  00000-0 -10391-3 0  9992,2 51131  53.2160 286.6509 0001959  43.7902 316.3246 15.08840037 35442,6917.88,95.438,541.1,538.39,0.0
51131.0,STARLINK-3388,PAYLOAD,2022-09-07 10:39:28,15.08839036,0.0002003,53.2164,281.8949,47.2749,312.8411,-2.658e-05,-7.11e-06,0.0,0 STARLINK-3388,1 51131U 22005AD  22250.44408504 -.00000711  00000-0 -26580-4 0  9996,2 51131  53.2164 281.8949 0002003  47.2749 312.8411 15.08839036 36724,6917.8830000000025,95.438,541.134,538.363,0.0
51131.0,STARLINK-3388,PAYLOAD,2022-09-07 12:14:52,15.08840309,0.0002028,53.2163,281.5975,49.7011,310.4158,-4.8849e-05,-1.066e-05,0.0,0 STARLINK-3388,1 51131U 22005AD  22250.51032475 -.00001066  00000-0 -48849-4 0  9990,2 51131  53.2163 281.5975 0002028  49.7011 310.4158 15.08840309 35619,6917.879,95.438,541.1469999999998,538.341,0.0
51131.0,STARLINK-3388,PAYLOAD,2022-09-07 13:50:15,15.08831618,0.0002055,53.2172,281.2989,40.9809,319.1337,-4.4861e-05,-1.002e-05,0.0,0 STARLINK-3388,1 51131U 22005AD  22250.57657025 -.00001002  00000-0 -44861-4 0  9990,2 51131  53.2172 281.2989 0002055  40.9809 319.1337 15.08831618 35628,6917.906,95.438,541.193,538.349,0.0
51131.0,STARLINK-3388,PAYLOAD,2022-09-08 02:33:21,15.08818146,0.0001828,53.2164,278.9197,41.6263,318.4868,4.2042e-05,3.81e-06,0.0,0 STARLINK-3388,1 51131U 22005AD  22251.10650031  .00000381  00000-0  42042-4 0  9996,2 51131  53.2164 278.9197 0001828  41.6263 318.4868 15.08818146 36827,6917.946999999999,95.439,541.077,538.548,0.0
51131.0,STARLINK-3388,PAYLOAD,2022-09-08 12:05:40,15.08823344,0.0001948,53.2162,277.1359,39.3538,320.7596,7.9091e-05,9.7e-06,0.0,0 STARLINK-3388,1 51131U 22005AD  22251.50394145  .00000970  00000-0  79091-4 0  9999,2 51131  53.2162 277.1359 0001948  39.3538 320.7596 15.08823344 35760,6917.931,95.439,541.144,538.4490000000002,0.0
51131.0,STARLINK-3388,PAYLOAD,2022-09-09 02:24:08,15.08831681,0.0001954,53.2161,274.4595,42.5594,317.555,7.2268e-05,8.62e-06,0.0,0 STARLINK-3388,1 51131U 22005AD  22252.10010142  .00000862  00000-0  72268-4 0  9997,2 51131  53.2161 274.4595 0001954  42.5594 317.5550 15.08831681 36977,6917.906,95.438,541.123,538.419,0.0
51131.0,STARLINK-3388,PAYLOAD,2022-09-09 11:56:27,15.08841059,0.0002035,53.2161,272.6754,56.8403,303.2784,3.6831e-05,2.98e-06,0.0,0 STARLINK-3388,1 51131U 22005AD  22252.49753802  .00000298  00000-0  36831-4 0  9995,2 51131  53.2161 272.6754 0002035  56.8403 303.2784 15.08841059 35916,6917.877,95.437,541.15,538.3340000000002,0.0
51131.0,STARLINK-3388,PAYLOAD,2022-09-10 10:11:50,15.08849023,0.0002075,53.2149,268.5121,42.4085,317.7067,0.00029917,4.478e-05,0.0,0 STARLINK-3388,1 51131U 22005AD  22253.42489575  .00004478  00000-0  29917-3 0  9992,2 51131  53.2149 268.5121 0002075  42.4085 317.7067 15.08849023 36054,6917.853,95.437,541.153,538.2819999999998,0.0
51131.0,STARLINK-3388,PAYLOAD,2022-09-11 02:05:42,15.08838912,0.0002115,53.2145,265.538,42.4634,317.6522,6.7088e-06,-1.81e-06,0.0,0 STARLINK-3388,1 51131U 22005AD  22254.08730020 -.00000181  00000-0  67088-5 0  9990,2 51131  53.2145 265.5380 0002115  42.4634 317.6522 15.08838912 37274,6917.884,95.438,541.212,538.286,0.0
51131.0,STARLINK-3388,PAYLOAD,2022-09-11 10:02:38,15.08845636,0.0002092,53.2148,264.0511,42.6777,317.4377,0.0001008,1.317e-05,0.0,0 STARLINK-3388,1 51131U 22005AD  22254.41849660  .00001317  00000-0  10080-3 0  9997,2 51131  53.2148 264.0511 0002092  42.6777 317.4377 15.08845636 37324,6917.863,95.437,541.175,538.281,0.0
51131.0,STARLINK-3388,PAYLOAD,2022-09-12 09:53:24,15.08843658,0.0002053,53.2147,259.5899,43.6692,316.4462,2.6211e-05,1.29e-06,0.0,0 STARLINK-3388,1 51131U 22005AD  22255.41209481  .00000129  00000-0  26211-4 0  9993,2 51131  53.2147 259.5899 0002053  43.6692 316.4462 15.08843658 36353,6917.869000000002,95.437,541.154,538.314,0.0
51131.0,STARLINK-3388,PAYLOAD,2022-09-12 17:50:20,15.08848919,0.0002061999999999,53.215,258.1033,43.9112,316.2043,0.00013033,1.787e-05,0.0,0 STARLINK-3388,1 51131U 22005AD  22255.74329182  .00001787  00000-0  13033-3 0  9998,2 51131  53.2150 258.1033 0002062  43.9112 316.2043 15.08848919 37520,6917.853,95.437,541.145,538.2919999999998,0.0
51131.0,STARLINK-3388,PAYLOAD,2022-09-13 09:44:11,15.08846091,0.0002019,53.2152,255.1295,42.7908,317.3241,0.00010355,1.36e-05,0.0,0 STARLINK-3388,1 51131U 22005AD  22256.40569155  .00001360  00000-0  10355-3 0  9999,2 51131  53.2152 255.1295 0002019  42.7908 317.3241 15.08846091 36509,6917.861999999999,95.437,541.123,538.33,0.0
51131.0,STARLINK-3388,PAYLOAD,2022-09-14 03:13:26,15.0883534,0.0002156,53.2149,251.8595,36.4075,323.7063,6.0615e-05,6.76e-06,0.0,0 STARLINK-3388,1 51131U 22005AD  22257.13433661  .00000676  00000-0  60615-4 0  9996,2 51131  53.2149 251.8595 0002156  36.4075 323.7063 15.08835340 37732,6917.895,95.438,541.251,538.268,0.0
51131.0,STARLINK-3388,PAYLOAD,2022-09-14 09:34:59,15.08832859,0.0002191999999999,53.216,250.6707,33.8752,326.2379,3.4719000000000004e-05,2.64e-06,0.0,0 STARLINK-3388,1 51131U 22005AD  22257.39929970  .00000264  00000-0  34719-4 0  9996,2 51131  53.2160 250.6707 0002192  33.8752 326.2379 15.08832859 36650,6917.901999999999,95.438,541.284,538.251,0.0
51131.0,STARLINK-3388,PAYLOAD,2022-09-15 04:39:36,15.08849223,0.0002302,53.2159,247.1017,42.3644,317.7525,-7.6399e-06,-4.1e-06,0.0,0 STARLINK-3388,1 51131U 22005AD  22258.19417195 -.00000410  00000-0 -76399-5 0  9992,2 51131  53.2159 247.1017 0002302  42.3644 317.7525 15.08849223 37899,6917.852,95.437,541.31,538.125,0.0
51131.0,STARLINK-3388,PAYLOAD,2022-09-15 09:25:45,15.08855086,0.0002085999999999,53.216,246.209,39.809,320.3055,-2.3471e-05,-6.62e-06,0.0,0 STARLINK-3388,1 51131U 22005AD  22258.39288740 -.00000662  00000-0 -23471-4 0  9997,2 51131  53.2160 246.2090 0002086  39.8090 320.3055 15.08855086 36809,6917.834,95.437,541.1419999999998,538.256,0.0
51131.0,STARLINK-3388,PAYLOAD,2022-09-15 15:47:19,15.08826764,0.0002125,53.2161,245.0192,41.4047,318.7106,0.00017483,2.494e-05,0.0,0 STARLINK-3388,1 51131U 22005AD  22258.65786269  .00002494  00000-0  17483-3 0  9993,2 51131  53.2161 245.0192 0002125  41.4047 318.7106 15.08826764 36848,6917.920999999999,95.438,541.256,538.316,0.0
51131.0,STARLINK-3388,PAYLOAD,2022-09-16 04:30:24,15.08834539,0.0002070999999999,53.2159,242.64,40.2912,319.8233,0.00011502,1.543e-05,0.0,0 STARLINK-3388,1 51131U 22005AD  22259.18777976  .00001543  00000-0  11502-3 0  9997,2 51131  53.2159 242.6400 0002071  40.2912 319.8233 15.08834539 38044,6917.897,95.438,541.195,538.3290000000002,0.0
51131.0,STARLINK-3388,PAYLOAD,2022-09-16 09:16:33,15.08837559,0.0002037,53.216,241.7484,41.4317,318.6829,0.00013521,1.864e-05,0.0,0 STARLINK-3388,1 51131U 22005AD  22259.38649798  .00001864  00000-0  13521-3 0  9998,2 51131  53.2160 241.7484 0002037  41.4317 318.6829 15.08837559 36953,6917.888000000001,95.438,541.1619999999998,538.344,0.0
51131.0,STARLINK-3388,PAYLOAD,2022-09-16 15:38:05,15.08839303,0.0002049,53.216,240.55900000000003,41.8078,318.307,0.00013005,1.782e-05,0.0,0 STARLINK-3388,1 51131U 22005AD  22259.65145761  .00001782  00000-0  13005-3 0  9995,2 51131  53.2160 240.5590 0002049  41.8078 318.3070 15.08839303 36997,6917.8830000000025,95.438,541.165,538.33,0.0
